STARLINK-4260           
1 52986U 22076A   26068.44651012  .00001489  00000+0  11158-3 0  9992
2 52986  53.2165  95.2121 0001297 100.1484 259.9654 15.08846027202804
DISKSAT C               
1 67219U 25305A   26068.80315184  .00011541  00000+0  75564-3 0  9993
2 67219  45.0017 250.1278 0004534 310.7706  49.2776 15.07852977 12312
